******** Week 998 almanac for PRN-19 ********
ID:                         19
Health:                     000
Eccentricity:               0.9569168091E-002
Time of Applicability(s):  589824.0000
Orbital Inclination(rad):   0.9813246611
Rate of Right Ascen(r/s):  -0.7714607059E-008
SQRT(A)  (m 1/2):           5153.562500
Right Ascen at Week(rad):   0.1973644549E+000
Argument of Perigee(rad):   1.299678330
Mean Anom(rad):            -0.2040164113E+001
Af0(s):                    -0.3938674927E-003
Af1(s/s):                   0.3637978807E-011
week:                        998

******** Week 998 almanac for PRN-20 ********
ID:                         20
Health:                     000
Eccentricity:               0.4377365112E-002
Time of Applicability(s):  589824.0000
Orbital Inclination(rad):   0.9289176456
Rate of Right Ascen(r/s):  -0.8274630386E-008
SQRT(A)  (m 1/2):           5153.605957
Right Ascen at Week(rad):   0.2080438224E+001
Argument of Perigee(rad):   2.129931575
Mean Anom(rad):            -0.8500968741E+000
Af0(s):                     0.5168914795E-003
Af1(s/s):                   0.0000000000E+000
week:                        998

******** Week 998 almanac for PRN-21 ********
ID:                         21
Health:                     000
Eccentricity:               0.2437734604E-001
Time of Applicability(s):  589824.0000
Orbital Inclination(rad):   0.9454199233
Rate of Right Ascen(r/s):  -0.7943188009E-008
SQRT(A)  (m 1/2):           5153.558105
Right Ascen at Week(rad):   0.1093373644E+001
Argument of Perigee(rad):  -1.520786531
Mean Anom(rad):            -0.2457863411E+001
Af0(s):                    -0.3213882446E-003
Af1(s/s):                   0.7275957614E-011
week:                        998

******** Week 998 almanac for PRN-22 ********
ID:                         22
Health:                     000
Eccentricity:               0.7019996643E-002
Time of Applicability(s):  589824.0000
Orbital Inclination(rad):   0.9256759128
Rate of Right Ascen(r/s):  -0.8354633718E-008
SQRT(A)  (m 1/2):           5153.619629
Right Ascen at Week(rad):   0.2129887758E+001
Argument of Perigee(rad):  -1.474248040
Mean Anom(rad):             0.7287831869E+000
Af0(s):                    -0.5455017090E-003
Af1(s/s):                  -0.1091393642E-010
week:                        998

******** Week 998 almanac for PRN-23 ********
ID:                         23
Health:                     000
Eccentricity:               0.1262664795E-001
Time of Applicability(s):  589824.0000
Orbital Inclination(rad):   0.9438559819
Rate of Right Ascen(r/s):  -0.7988904198E-008
SQRT(A)  (m 1/2):           5153.660156
Right Ascen at Week(rad):  -0.3058562573E+001
Argument of Perigee(rad):  -2.323832214
Mean Anom(rad):             0.1004708730E+000
Af0(s):                    -0.2088546753E-003
Af1(s/s):                   0.0000000000E+000
week:                        998

******** Week 998 almanac for PRN-24 ********
ID:                         24
Health:                     000
Eccentricity:               0.7411956787E-002
Time of Applicability(s):  589824.0000
Orbital Inclination(rad):   0.9404284936
Rate of Right Ascen(r/s):  -0.8023191341E-008
SQRT(A)  (m 1/2):           5153.573242
Right Ascen at Week(rad):  -0.2040826241E+001
Argument of Perigee(rad):   0.536189203
Mean Anom(rad):            -0.3232654787E+000
Af0(s):                    -0.5722045898E-004
Af1(s/s):                   0.0000000000E+000
week:                        998

******** Week 998 almanac for PRN-25 ********
ID:                         25
Health:                     000
Eccentricity:               0.7510185242E-002
Time of Applicability(s):  589824.0000
Orbital Inclination(rad):   0.9726181217
Rate of Right Ascen(r/s):  -0.8091765626E-008
SQRT(A)  (m 1/2):           5153.529785
Right Ascen at Week(rad):  -0.9441681710E+000
Argument of Perigee(rad):   0.856917771
Mean Anom(rad):            -0.2327126378E+001
Af0(s):                    -0.6608963013E-003
Af1(s/s):                  -0.7275957614E-011
week:                        998

******** Week 998 almanac for PRN-26 ********
ID:                         26
Health:                     000
Eccentricity:               0.3032684326E-002
Time of Applicability(s):  589824.0000
Orbital Inclination(rad):   0.9540545573
Rate of Right Ascen(r/s):  -0.8251772291E-008
SQRT(A)  (m 1/2):           5153.679199
Right Ascen at Week(rad):  -0.9686392092E+000
Argument of Perigee(rad):   0.046169226
Mean Anom(rad):            -0.2871474216E+001
Af0(s):                     0.8583068848E-005
Af1(s/s):                   0.1091393642E-010
week:                        998

******** Week 998 almanac for PRN-27 ********
ID:                         27
Health:                     000
Eccentricity:               0.6079673767E-002
Time of Applicability(s):  589824.0000
Orbital Inclination(rad):   0.9783286049
Rate of Right Ascen(r/s):  -0.7806039439E-008
SQRT(A)  (m 1/2):           5153.652832
Right Ascen at Week(rad):   0.9587604629E-001
Argument of Perigee(rad):   0.447091733
Mean Anom(rad):             0.1494462057E+001
Af0(s):                    -0.4768371582E-005
Af1(s/s):                  -0.3637978807E-011
week:                        998

******** Week 998 almanac for PRN-28 ********
ID:                         28
Health:                     000
Eccentricity:               0.1962184906E-001
Time of Applicability(s):  589824.0000
Orbital Inclination(rad):   0.9844165911
Rate of Right Ascen(r/s):  -0.7931758961E-008
SQRT(A)  (m 1/2):           5153.643555
Right Ascen at Week(rad):  -0.8596078546E+000
Argument of Perigee(rad):  -1.508922148
Mean Anom(rad):             0.2390760740E+001
Af0(s):                     0.7495880127E-003
Af1(s/s):                   0.0000000000E+000
week:                        998

******** Week 998 almanac for PRN-29 ********
ID:                         29
Health:                     000
Eccentricity:               0.7390975952E-003
Time of Applicability(s):  589824.0000
Orbital Inclination(rad):   0.9850457629
Rate of Right Ascen(r/s):  -0.7703178011E-008
SQRT(A)  (m 1/2):           5153.576660
Right Ascen at Week(rad):   0.1614874306E+000
Argument of Perigee(rad):   1.660407994
Mean Anom(rad):             0.2026270277E+001
Af0(s):                     0.3576278687E-003
Af1(s/s):                  -0.7275957614E-011
week:                        998

******** Week 998 almanac for PRN-30 ********
ID:                         30
Health:                     000
Eccentricity:               0.3595829010E-002
Time of Applicability(s):  589824.0000
Orbital Inclination(rad):   0.9428013701
Rate of Right Ascen(r/s):  -0.8046049436E-008
SQRT(A)  (m 1/2):           5153.626953
Right Ascen at Week(rad):  -0.1947146679E+001
Argument of Perigee(rad):  -2.970574019
Mean Anom(rad):            -0.1369493930E+001
Af0(s):                     0.1049041748E-004
Af1(s/s):                  -0.3637978807E-011
week:                        998

******** Week 998 almanac for PRN-31 ********
ID:                         31
Health:                     000
Eccentricity:               0.8970260620E-002
Time of Applicability(s):  589824.0000
Orbital Inclination(rad):   0.9618742641
Rate of Right Ascen(r/s):  -0.7840326581E-008
SQRT(A)  (m 1/2):           5153.713867
Right Ascen at Week(rad):  -0.1965580289E+001
Argument of Perigee(rad):  -0.100136438
Mean Anom(rad):            -0.1578639627E+001
Af0(s):                     0.8678436279E-004
Af1(s/s):                  -0.3637978807E-011
week:                        998

******** Week 998 almanac for PRN-32 ********
ID:                         32
Health:                     000
Eccentricity:               0.2302169800E-002
Time of Applicability(s):  589824.0000
Orbital Inclination(rad):   0.9573801797
Rate of Right Ascen(r/s):  -0.7817468486E-008
SQRT(A)  (m 1/2):           5153.661621
Right Ascen at Week(rad):  -0.3049988609E+001
Argument of Perigee(rad):  -2.571091866
Mean Anom(rad):             0.2244434477E+001
Af0(s):                    -0.3938674927E-003
Af1(s/s):                   0.1091393642E-010
week:                        998

